STARLINK-11315 [DTC]    
1 61692U 24195F   26068.25499381 -.00001924  00000+0 -11035-4 0  9999
2 61692  53.1584  28.5316 0001168 124.8036 235.3092 15.69696093 78965
ISS OBJECT XW           
1 66910U 98067XW  26068.25909918  .00146604  00000+0  12540-2 0  9991
2 66910  51.6252  67.7624 0005143  83.0730 277.0851 15.68462358 15117
