[{"OBJECT_NAME":"STARLINK-11315 [DTC]","OBJECT_ID":"2024-195F","EPOCH":"2026-03-09T06:07:11.465184","MEAN_MOTION":15.69696093,"ECCENTRICITY":0.00011689,"INCLINATION":53.1584,"RA_OF_ASC_NODE":28.5316,"ARG_OF_PERICENTER":124.8036,"MEAN_ANOMALY":235.3092,"EPHEMERIS_TYPE":0,"CLASSIFICATION_TYPE":"U","NORAD_CAT_ID":61692,"ELEMENT_SET_NO":999,"REV_AT_EPOCH":7896,"BSTAR":-1.1034916e-5,"MEAN_MOTION_DOT":-1.924e-5,"MEAN_MOTION_DDOT":0},{"OBJECT_NAME":"ISS OBJECT XW","OBJECT_ID":"1998-067XW","EPOCH":"2026-03-09T06:13:06.169152","MEAN_MOTION":15.68462358,"ECCENTRICITY":0.00051435,"INCLINATION":51.6252,"RA_OF_ASC_NODE":67.7624,"ARG_OF_PERICENTER":83.073,"MEAN_ANOMALY":277.0851,"EPHEMERIS_TYPE":0,"CLASSIFICATION_TYPE":"U","NORAD_CAT_ID":66910,"ELEMENT_SET_NO":999,"REV_AT_EPOCH":1511,"BSTAR":0.0012539699,"MEAN_MOTION_DOT":0.00146604,"MEAN_MOTION_DDOT":0}]
